[{"OBJECT_NAME":"STARLINK-31458","OBJECT_ID":"2024-071T","EPOCH":"2026-03-09T03:25:41.763072","MEAN_MOTION":15.27563458,"ECCENTRICITY":9.83e-5,"INCLINATION":43.0047,"RA_OF_ASC_NODE":342.6879,"ARG_OF_PERICENTER":249.2821,"MEAN_ANOMALY":110.7925,"EPHEMERIS_TYPE":0,"CLASSIFICATION_TYPE":"U","NORAD_CAT_ID":59501,"ELEMENT_SET_NO":999,"REV_AT_EPOCH":10812,"BSTAR":-0.00013457073,"MEAN_MOTION_DOT":-3.961e-5,"MEAN_MOTION_DDOT":0},{"OBJECT_NAME":"CZ-4C R\/B","OBJECT_ID":"2022-039B","EPOCH":"2026-03-09T15:51:32.485824","MEAN_MOTION":15.03008334,"ECCENTRICITY":0.0113659,"INCLINATION":98.2525,"RA_OF_ASC_NODE":105.9247,"ARG_OF_PERICENTER":45.8852,"MEAN_ANOMALY":315.1654,"EPHEMERIS_TYPE":0,"CLASSIFICATION_TYPE":"U","NORAD_CAT_ID":52258,"ELEMENT_SET_NO":999,"REV_AT_EPOCH":21291,"BSTAR":0.00022979194,"MEAN_MOTION_DOT":3.483e-5,"MEAN_MOTION_DDOT":0}]
